NORAD_CAT_ID,OBJECT_NAME,OBJECT_TYPE,EPOCH,MEAN_MOTION,ECCENTRICITY,INCLINATION,RA_OF_ASC_NODE,ARG_OF_PERICENTER,MEAN_ANOMALY,BSTAR,MEAN_MOTION_DOT,MEAN_MOTION_DDOT,TLE_LINE0,TLE_LINE1,TLE_LINE2,SEMIMAJOR_AXIS,PERIOD,APOGEE,PERIGEE,DECAYED
54092.0,STARLINK-5190,PAYLOAD,2024-04-15 13:44:24,15.19281966,0.0003239,53.2159,199.6102,340.1398,19.9472,0.00090897,0.00019145,0.0,0 STARLINK-5190,1 54092U 22136AT  24106.57250377  .00019145  00000-0  90897-3 0  9999,2 54092  53.2159 199.6102 0003239 340.1398  19.9472 15.19281966 82437,6886.146,94.782,510.242,505.781,0.0
54092.0,STARLINK-5190,PAYLOAD,2024-04-15 15:19:07,15.19289831,0.0003195,53.2165,199.3042,341.4845,18.6035,0.0010708,0.00022627,0.0,0 STARLINK-5190,1 54092U 22136AT  24106.63828664  .00022627  00000-0  10708-2 0  9997,2 54092  53.2165 199.3042 0003195 341.4845  18.6035 15.19289831 82919,6886.123,94.781,510.188,505.788,0.0
54092.0,STARLINK-5190,PAYLOAD,2024-04-15 23:12:45,15.19334809,0.000261,53.2146,197.8152,329.5489,30.5356,0.0018551,0.00039578,0.0,0 STARLINK-5190,1 54092U 22136AT  24106.96719649  .00039578  00000-0  18551-2 0  9992,2 54092  53.2146 197.8152 0002610 329.5489  30.5356 15.19334809 82965,6885.987,94.778,509.649,506.055,0.0
54092.0,STARLINK-5190,PAYLOAD,2024-04-16 11:50:32,15.19416273,0.0002731,53.2139,195.4141,331.1802,28.9043,0.003078,0.0006628,0.0,0 STARLINK-5190,1 54092U 22136AT  24107.49343683  .00066280  00000-0  30780-2 0  9990,2 54092  53.2139 195.4141 0002731 331.1802  28.9043 15.19416273 83041,6885.741,94.773,509.486,505.725,0.0
54092.0,STARLINK-5190,PAYLOAD,2024-04-16 13:25:16,15.19421699,0.0002737,53.2137,195.1144,332.768,27.3173,0.0029277,0.00063009,0.0,0 STARLINK-5190,1 54092U 22136AT  24107.55921568  .00063009  00000-0  29277-2 0  9996,2 54092  53.2137 195.1144 0002737 332.7680  27.3173 15.19421699 82589,6885.724,94.773,509.474,505.705,0.0
54092.0,STARLINK-5190,PAYLOAD,2024-04-17 13:06:00,15.19550036,0.0002929,53.2132,190.6114,336.6512,23.4351,0.0023217,0.00049998,0.0,0 STARLINK-5190,1 54092U 22136AT  24108.54584390  .00049998  00000-0  23217-2 0  9993,2 54092  53.2132 190.6114 0002929 336.6512  23.4351 15.19550036 82731,6885.337,94.765,509.218,505.185,0.0
54092.0,STARLINK-5190,PAYLOAD,2024-04-18 11:11:57,15.19641227,0.0003102,53.2134,186.4089,342.5335,17.5555,0.0022794,0.00049207,0.0,0 STARLINK-5190,1 54092U 22136AT  24109.46663516  .00049207  00000-0  22794-2 0  9995,2 54092  53.2134 186.4089 0003102 342.5335  17.5555 15.19641227 82878,6885.061,94.759,509.062,504.79,0.0
54092.0,STARLINK-5190,PAYLOAD,2024-04-19 04:33:42,15.19702082,0.0003258,53.2129,183.1065,345.0051,15.0849,0.0021681,0.00046857,0.0,0 STARLINK-5190,1 54092U 22136AT  24110.19007823  .00046857  00000-0  21681-2 0  9992,2 54092  53.2129 183.1065 0003258 345.0051  15.0849 15.19702082 83456,6884.877,94.755,508.985,504.499,0.0
54092.0,STARLINK-5190,PAYLOAD,2024-04-19 12:27:13,15.19734079,0.0003396,53.2137,181.6045,348.3108,11.7809,0.0023467,0.00050819,0.0,0 STARLINK-5190,1 54092U 22136AT  24110.51890722  .00050819  00000-0  23467-2 0  9993,2 54092  53.2137 181.6045 0003396 348.3108  11.7809 15.19734079 83032,6884.781,94.753,508.984,504.308,0.0
54092.0,STARLINK-5190,PAYLOAD,2024-04-20 12:07:41,15.19827025,0.0003576,53.2139,177.1013,352.5198,7.5745,0.0016934,0.0003661,0.0,0 STARLINK-5190,1 54092U 22136AT  24111.50534463  .00036610  00000-0  16934-2 0  9994,2 54092  53.2139 177.1013 0003576 352.5198   7.5745 15.19827025 83659,6884.5,94.748,508.827,503.903,0.0
54092.0,STARLINK-5190,PAYLOAD,2024-04-21 03:54:38,15.19858362,0.0003805,53.2143,174.0996,356.565,3.5321,0.0011886,0.00025585,0.0,0 STARLINK-5190,1 54092U 22136AT  24112.16294677  .00025585  00000-0  11886-2 0  9997,2 54092  53.2143 174.0996 0003805 356.5650   3.5321 15.19858362 83757,6884.405,94.746,508.89,503.651,0.0
54092.0,STARLINK-5190,PAYLOAD,2024-04-21 13:22:48,15.19868734,0.0003682,53.2141,172.2967,356.1112,3.9856,0.0012091,0.00026041,0.0,0 STARLINK-5190,1 54092U 22136AT  24112.55750481  .00026041  00000-0  12091-2 0  9997,2 54092  53.2141 172.2967 0003682 356.1112   3.9856 15.19868734 83341,6884.374,94.745,508.774,503.704,0.0
54092.0,STARLINK-5190,PAYLOAD,2024-04-22 09:53:48,15.19901924,0.0004239,53.2131,168.3946,2.3611,357.7405,0.0010278,0.00022099,0.0,0 STARLINK-5190,1 54092U 22136AT  24113.41236506  .00022099  00000-0  10278-2 0  9994,2 54092  53.2131 168.3946 0004239   2.3611 357.7405 15.19901924 83941,6884.274,94.743,509.057,503.221,0.0
54092.0,STARLINK-5190,PAYLOAD,2024-04-22 13:03:11,15.19908852,0.0004205,53.2131,167.794,2.6349,357.467,0.0010155,0.00021834,0.0,0 STARLINK-5190,1 54092U 22136AT  24113.54387934  .00021834  00000-0  10155-2 0  9990,2 54092  53.2131 167.7940 0004205   2.6349 357.4670 15.19908852 83490,6884.253,94.743,509.013,503.223,0.0
54092.0,STARLINK-5190,PAYLOAD,2024-04-23 03:15:22,15.19961785,0.0003906,53.2132,165.0892,4.5835,355.5197,0.0012752,0.00027564,0.0,0 STARLINK-5190,1 54092U 22136AT  24114.13567726  .00027564  00000-0  12752-2 0  9996,2 54092  53.2132 165.0892 0003906   4.5835 355.5197 15.19961785 84056,6884.093,94.739,508.647,503.269,0.0
54092.0,STARLINK-5190,PAYLOAD,2024-04-23 09:34:07,15.19972313,0.0003699,53.2135,163.8874,3.7805,356.322,0.0011287,0.00024356,0.0,0 STARLINK-5190,1 54092U 22136AT  24114.39869574  .00024356  00000-0  11287-2 0  9998,2 54092  53.2135 163.8874 0003699   3.7805 356.3220 15.19972313 83629,6884.061,94.739,508.473,503.38,0.0
54092.0,STARLINK-5190,PAYLOAD,2024-04-24 02:55:40,15.19986726,0.0003593,53.213,160.5851,3.7187,356.3836,0.00075504,0.00016174,0.0,0 STARLINK-5190,1 54092U 22136AT  24115.12199334  .00016174  00000-0  75504-3 0  9992,2 54092  53.2130 160.5851 0003593   3.7187 356.3836 15.19986726 84200,6884.018,94.738,508.356,503.409,0.0
54092.0,STARLINK-5190,PAYLOAD,2024-04-24 09:14:24,15.19996726,0.0003865,53.2134,159.3846,5.092,355.0116,0.00077197,0.0001655,0.0,0 STARLINK-5190,1 54092U 22136AT  24115.38500788  .00016550  00000-0  77197-3 0  9997,2 54092  53.2134 159.3846 0003865   5.0920 355.0116 15.19996726 83775,6883.987,94.737,508.513,503.192,0.0
54092.0,STARLINK-5190,PAYLOAD,2024-04-25 08:54:40,15.20022815,0.0003884,53.2135,154.8799,9.3288,350.778,0.00061708,0.00013169,0.0,0 STARLINK-5190,1 54092U 22136AT  24116.37130045  .00013169  00000-0  61708-3 0  9996,2 54092  53.2135 154.8799 0003884   9.3288 350.7780 15.20022815 84397,6883.909,94.735,508.447,503.1,0.0
54092.0,STARLINK-5190,PAYLOAD,2024-04-26 08:34:54,15.2005035,0.0004342,53.2132,150.375,11.0709,349.0383,0.00062613,0.00013378,0.0,0 STARLINK-5190,1 54092U 22136AT  24117.35757597  .00013378  00000-0  62613-3 0  9990,2 54092  53.2132 150.3750 0004342  11.0709 349.0383 15.20050350 84070,6883.826,94.734,508.68,502.702,0.0
54092.0,STARLINK-5190,PAYLOAD,2024-04-27 01:56:23,15.20073502,0.0004341,53.2134,147.0693,13.7011,346.4103,0.0006966,0.00014934,0.0,0 STARLINK-5190,1 54092U 22136AT  24118.08083170  .00014934  00000-0  69660-3 0  9998,2 54092  53.2134 147.0693 0004341  13.7011 346.4103 15.20073502 84654,6883.756,94.732,508.609,502.632,0.0
54092.0,STARLINK-5190,PAYLOAD,2024-04-27 11:24:28,15.20087327,0.0004442,53.2134,145.2677,14.1228,345.9893,0.00073539,0.00015792,0.0,0 STARLINK-5190,1 54092U 22136AT  24118.47533016  .00015792  00000-0  73539-3 0  9993,2 54092  53.2134 145.2677 0004442  14.1228 345.9893 15.20087327 84248,6883.714,94.731,508.637,502.521,0.0
54092.0,STARLINK-5190,PAYLOAD,2024-04-27 19:17:52,15.20093573,0.0004485,53.2134,143.7659,15.0569,345.0561,0.00060403,0.0001291,0.0,0 STARLINK-5190,1 54092U 22136AT  24118.80407708  .00012910  00000-0  60403-3 0  9993,2 54092  53.2134 143.7659 0004485  15.0569 345.0561 15.20093573 84294,6883.695,94.731,508.647,502.473,0.0
54092.0,STARLINK-5190,PAYLOAD,2024-04-28 11:04:39,15.2011175,0.0004582,53.2138,140.7627,16.8037,343.3111,0.00059289,0.00012673,0.0,0 STARLINK-5190,1 54092U 22136AT  24119.46156491  .00012673  00000-0  59289-3 0  9992,2 54092  53.2138 140.7627 0004582  16.8037 343.3111 15.20111750 84860,6883.64,94.73,508.659,502.351,0.0
54092.0,STARLINK-5190,PAYLOAD,2024-04-28 18:58:02,15.20115455,0.0004615,53.214,139.2608,17.923,342.1929,0.00045976,9.751e-05,0.0,0 STARLINK-5190,1 54092U 22136AT  24119.79030698  .00009751  00000-0  45976-3 0  9999,2 54092  53.2140 139.2608 0004615  17.9230 342.1929 15.20115455 84443,6883.629,94.73,508.671,502.317,0.0
54092.0,STARLINK-5190,PAYLOAD,2024-04-29 10:44:48,15.2012756,0.0004706,53.2145,136.2575,19.6995,340.4183,0.0003958,8.351e-05,0.0,0 STARLINK-5190,1 54092U 22136AT  24120.44778663  .00008351  00000-0  39580-3 0  9993,2 54092  53.2145 136.2575 0004706  19.6995 340.4183 15.20127560 84540,6883.593,94.729,508.697,502.218,0.0
54092.0,STARLINK-5190,PAYLOAD,2024-04-29 18:38:11,15.20132812,0.0004736,53.2149,134.7558,20.7892,339.3297,0.00039099,8.247e-05,0.0,0 STARLINK-5190,1 54092U 22136AT  24120.77652492  .00008247  00000-0  39099-3 0  9999,2 54092  53.2149 134.7558 0004736  20.7892 339.3297 15.20132812 85067,6883.577,94.729,508.702,502.182,0.0
54092.0,STARLINK-5190,PAYLOAD,2024-04-30 07:15:36,15.20141054,0.0004814,53.2151,132.3532,22.0611,338.0592,0.0003678,7.74e-05,0.0,0 STARLINK-5190,1 54092U 22136AT  24121.30250351  .00007740  00000-0  36780-3 0  9998,2 54092  53.2151 132.3532 0004814  22.0611 338.0592 15.20141054 84675,6883.552,94.728,508.731,502.103,0.0
54092.0,STARLINK-5190,PAYLOAD,2024-04-30 18:18:20,15.2014976,0.0004873,53.2154,130.2509,23.3694,336.7524,0.00040103,8.472e-05,0.0,0 STARLINK-5190,1 54092U 22136AT  24121.76273247  .00008472  00000-0  40103-3 0  9994,2 54092  53.2154 130.2509 0004873  23.3694 336.7524 15.20149760 84749,6883.525,94.728,508.745,502.036,0.0
54092.0,STARLINK-5190,PAYLOAD,2024-05-01 03:46:23,15.20157097,0.0004913,53.2158,128.4488,24.5627,335.5603,0.00042754,9.056e-05,0.0,0 STARLINK-5190,1 54092U 22136AT  24122.15721255  .00009056  00000-0  42754-3 0  9998,2 54092  53.2158 128.4488 0004913  24.5627 335.5603 15.20157097 85278,6883.503,94.727,508.75,501.986,0.0
